NORAD_CAT_ID,OBJECT_NAME,OBJECT_TYPE,EPOCH,MEAN_MOTION,ECCENTRICITY,INCLINATION,RA_OF_ASC_NODE,ARG_OF_PERICENTER,MEAN_ANOMALY,BSTAR,MEAN_MOTION_DOT,MEAN_MOTION_DDOT,TLE_LINE0,TLE_LINE1,TLE_LINE2,SEMIMAJOR_AXIS,PERIOD,APOGEE,PERIGEE,DECAYED
53871.0,STARLINK-4740,PAYLOAD,2023-02-26 14:30:15,15.0884811,0.0001232,53.2185,193.7587,79.4178,280.6952,7.4553e-05,8.99e-06,0.0,0 STARLINK-4740,1 53871U 22114BF  23057.60434494  .00000899  00000-0  74553-4 0  9999,2 53871  53.2185 193.7587 0001232  79.4178 280.6952 15.08848110 25728,6917.856,95.437,540.573,538.868,0.0
53871.0,STARLINK-4740,PAYLOAD,2023-02-26 20:51:46,15.08858471,0.0001402,53.2181,192.5699,94.4006,265.7146,0.00014695,2.053e-05,0.0,0 STARLINK-4740,1 53871U 22114BF  23057.86929341  .00002053  00000-0  14695-3 0  9991,2 53871  53.2181 192.5699 0001402  94.4006 265.7146 15.08858471 26306,6917.824,95.436,540.659,538.719,0.0
53871.0,STARLINK-4740,PAYLOAD,2023-02-27 01:37:59,15.08819124,9.45e-05,53.2181,191.6785,110.9699,249.1395,-0.00019777,-3.432e-05,0.0,0 STARLINK-4740,1 53871U 22114BF  23058.06804710 -.00003432  00000-0 -19777-3 0  9996,2 53871  53.2181 191.6785 0000945 110.9699 249.1395 15.08819124 25791,6917.944,95.439,540.463,539.155,0.0
53871.0,STARLINK-4740,PAYLOAD,2023-02-27 11:10:18,15.08818765,5.21e-05,53.2196,189.8929,120.9612,239.1432,-0.00011607,-2.133e-05,0.0,0 STARLINK-4740,1 53871U 22114BF  23058.46548843 -.00002133  00000-0 -11607-3 0  9993,2 53871  53.2196 189.8929 0000521 120.9612 239.1432 15.08818765 26390,6917.945,95.439,540.171,539.45,0.0
53871.0,STARLINK-4740,PAYLOAD,2023-02-27 19:07:10,15.08858558,0.0001026,53.2175,188.4056,112.3752,247.7349,0.00018683,2.688e-05,0.0,0 STARLINK-4740,1 53871U 22114BF  23058.79665257  .00002688  00000-0  18683-3 0  9992,2 53871  53.2175 188.4056 0001026 112.3752 247.7349 15.08858558 25906,6917.824,95.436,540.398,538.979,0.0
53871.0,STARLINK-4740,PAYLOAD,2023-02-28 01:28:44,15.08840776,9.83e-05,53.2183,187.2168,70.1892,289.9206,9.9779e-06,-1.29e-06,0.0,0 STARLINK-4740,1 53871U 22114BF  23059.06162870 -.00000129  00000-0  99779-5 0  9992,2 53871  53.2183 187.2168 0000983  70.1892 289.9206 15.08840776 25940,6917.878,95.438,540.423,539.063,0.0
53871.0,STARLINK-4740,PAYLOAD,2023-02-28 12:36:27,15.08835828,0.0001306,53.2177,185.1365,72.5958,287.5177,-0.00010701,-1.99e-05,0.0,0 STARLINK-4740,1 53871U 22114BF  23059.52531776 -.00001990  00000-0 -10701-3 0  9992,2 53871  53.2177 185.1365 0001306  72.5958 287.5177 15.08835828 26559,6917.893,95.438,540.662,538.855,0.0
53871.0,STARLINK-4740,PAYLOAD,2023-02-28 14:11:50,15.08840712,0.0001324,53.2162,184.8392,73.039,287.0747,-0.00013241,-2.395e-05,0.0,0 STARLINK-4740,1 53871U 22114BF  23059.59155590 -.00002395  00000-0 -13241-3 0  9997,2 53871  53.2162 184.8392 0001324  73.0390 287.0747 15.08840712 26023,6917.878,95.438,540.659,538.827,0.0
53871.0,STARLINK-4740,PAYLOAD,2023-02-28 17:22:35,15.0885476,0.0001094,53.218,184.2435,98.8131,261.2985,-5.5139e-05,-1.166e-05,0.0,0 STARLINK-4740,1 53871U 22114BF  23059.72402228 -.00001166  00000-0 -55139-4 0  9993,2 53871  53.2180 184.2435 0001094  98.8131 261.2985 15.08854760 26584,6917.835,95.437,540.457,538.943,0.0
53871.0,STARLINK-4740,PAYLOAD,2023-03-01 01:19:33,15.08832804,9.35e-05,53.2179,182.7577,83.8992,276.2107,-0.00028152,-4.764e-05,0.0,0 STARLINK-4740,1 53871U 22114BF  23060.05524357 -.00004764  00000-0 -28152-3 0  9990,2 53871  53.2179 182.7577 0000935  83.8992 276.2107 15.08832804 26097,6917.902,95.438,540.414,539.121,0.0
53871.0,STARLINK-4740,PAYLOAD,2023-03-01 10:51:53,15.08811599,0.0001825,53.219,180.977,87.0773,273.0428,-0.00017489,-3.068e-05,0.0,0 STARLINK-4740,1 53871U 22114BF  23060.45270311 -.00003068  00000-0 -17489-3 0  9999,2 53871  53.2190 180.9770 0001825  87.0773 273.0428 15.08811599 26153,6917.967,95.439,541.095,538.57,0.0
53871.0,STARLINK-4740,PAYLOAD,2023-03-01 17:13:26,15.08820252,0.0001619,53.2163,179.7851,85.239,274.8787,-0.0001986,-3.446e-05,0.0,0 STARLINK-4740,1 53871U 22114BF  23060.71766222 -.00003446  00000-0 -19860-3 0  9994,2 53871  53.2163 179.7851 0001619  85.2390 274.8787 15.08820252 26192,6917.941,95.439,540.926,538.686,0.0
53871.0,STARLINK-4740,PAYLOAD,2023-03-02 01:10:20,15.08843947,0.0001509,53.2179,178.2986,92.2884,267.828,-0.00015675,-2.782e-05,0.0,0 STARLINK-4740,1 53871U 22114BF  23061.04884668 -.00002782  00000-0 -15675-3 0  9998,2 53871  53.2179 178.2986 0001509  92.2884 267.8280 15.08843947 26248,6917.868,95.437,540.777,538.689,0.0
53871.0,STARLINK-4740,PAYLOAD,2023-03-02 17:04:09,15.08865264,0.0001206,53.218,175.3244,84.9529,275.16,0.00019899,2.883e-05,0.0,0 STARLINK-4740,1 53871U 22114BF  23061.71121994  .00002883  00000-0  19899-3 0  9990,2 53871  53.2180 175.3244 0001206  84.9529 275.1600 15.08865264 26887,6917.803,95.436,540.502,538.834,0.0
53871.0,STARLINK-4740,PAYLOAD,2023-03-03 10:33:25,15.08834432,0.0001692,53.2179,172.0556,85.9659,274.1527,0.00023391,3.436e-05,0.0,0 STARLINK-4740,1 53871U 22114BF  23062.43987860  .00003436  00000-0  23391-3 0  9999,2 53871  53.2179 172.0556 0001692  85.9659 274.1527 15.08834432 26452,6917.897,95.438,540.933,538.592,0.0
53871.0,STARLINK-4740,PAYLOAD,2023-03-03 16:54:55,15.08865669,0.0001408,53.2189,170.8614,114.8197,245.2942,0.00032577,4.904e-05,0.0,0 STARLINK-4740,1 53871U 22114BF  23062.70481344  .00004904  00000-0  32577-3 0  9992,2 53871  53.2189 170.8614 0001408 114.8197 245.2942 15.08865669 26498,6917.802,95.436,540.641,538.693,0.0
53871.0,STARLINK-4740,PAYLOAD,2023-03-04 07:13:27,15.08836632,0.0001676,53.2176,168.1886,98.9129,261.2053,-0.0001915,-3.334e-05,0.0,0 STARLINK-4740,1 53871U 22114BF  23063.30100983 -.00003334  00000-0 -19150-3 0  9996,2 53871  53.2176 168.1886 0001676  98.9129 261.2053 15.08836632 26588,6917.891,95.438,540.915,538.596,0.0
53871.0,STARLINK-4740,PAYLOAD,2023-03-04 10:24:13,15.08836768,0.00017,53.2178,167.5938,102.5302,257.588,-0.0001857,-3.242e-05,0.0,0 STARLINK-4740,1 53871U 22114BF  23063.43349071 -.00003242  00000-0 -18570-3 0  9996,2 53871  53.2178 167.5938 0001700 102.5302 257.5880 15.08836768 27143,6917.89,95.438,540.931,538.579,0.0
53871.0,STARLINK-4740,PAYLOAD,2023-03-04 16:45:44,15.08856692,9.82e-05,53.2183,166.404,110.8915,249.2183,-0.00015913,-2.821e-05,0.0,0 STARLINK-4740,1 53871U 22114BF  23063.69843331 -.00002821  00000-0 -15913-3 0  9992,2 53871  53.2183 166.4040 0000982 110.8915 249.2183 15.08856692 26640,6917.829,95.436,540.374,539.015,0.0
53871.0,STARLINK-4740,PAYLOAD,2023-03-05 22:58:05,15.08840885,0.0001153,53.2194,160.7544,101.6984,258.4138,-0.00025633,-4.365e-05,0.0,0 STARLINK-4740,1 53871U 22114BF  23064.95700764 -.00004365  00000-0 -25633-3 0  9999,2 53871  53.2194 160.7544 0001153 101.6984 258.4138 15.08840885 26833,6917.878,95.437,540.54,538.945,0.0
53871.0,STARLINK-4740,PAYLOAD,2023-03-06 11:41:09,15.08845438,0.0001285,53.2193,158.3781,96.1128,264.0011,0.0002038,2.958e-05,0.0,0 STARLINK-4740,1 53871U 22114BF  23065.48691443  .00002958  00000-0  20380-3 0  9999,2 53871  53.2193 158.3781 0001285  96.1128 264.0011 15.08845438 26913,6917.864,95.437,540.618,538.84,0.0
53871.0,STARLINK-4740,PAYLOAD,2023-03-06 16:27:16,15.08862576,0.000122,53.2188,157.483,119.4136,240.6978,0.00028316,4.224e-05,0.0,0 STARLINK-4740,1 53871U 22114BF  23065.68561122  .00004224  00000-0  28316-3 0  9996,2 53871  53.2188 157.4830 0001220 119.4136 240.6978 15.08862576 26946,6917.811,95.436,540.52,538.832,0.0
53871.0,STARLINK-4740,PAYLOAD,2023-03-07 06:45:49,15.08833334,0.0001341,53.2184,154.8087,93.5368,266.5778,-0.00018266,-3.193e-05,0.0,0 STARLINK-4740,1 53871U 22114BF  23066.28181901 -.00003193  00000-0 -18266-3 0  9995,2 53871  53.2184 154.8087 0001341  93.5368 266.5778 15.08833334 27036,6917.901,95.438,540.693,538.838,0.0
53871.0,STARLINK-4740,PAYLOAD,2023-03-07 09:56:34,15.08845036,0.0001605,53.2184,154.2139,103.0841,257.033,-8.2993e-05,-1.609e-05,0.0,0 STARLINK-4740,1 53871U 22114BF  23066.41428823 -.00001609  00000-0 -82993-4 0  9996,2 53871  53.2184 154.2139 0001605 103.0841 257.0330 15.08845036 27057,6917.865,95.437,540.84,538.62,0.0
53871.0,STARLINK-4740,PAYLOAD,2023-03-08 09:47:21,15.08839054,0.0001621,53.2187,149.7547,100.1121,260.0054,-0.00012138,-2.219e-05,0.0,0 STARLINK-4740,1 53871U 22114BF  23067.40789099 -.00002219  00000-0 -12138-3 0  9992,2 53871  53.2187 149.7547 0001621 100.1121 260.0054 15.08839054 27745,6917.883,95.438,540.87,538.627,0.0
53871.0,STARLINK-4740,PAYLOAD,2023-03-08 22:30:25,15.08855138,0.0001154,53.2182,147.3729,97.6916,262.4207,-0.0001567,-2.782e-05,0.0,0 STARLINK-4740,1 53871U 22114BF  23067.93779922 -.00002782  00000-0 -15670-3 0  9993,2 53871  53.2182 147.3729 0001154  97.6916 262.4207 15.08855138 27285,6917.834,95.437,540.497,538.901,0.0
53871.0,STARLINK-4740,PAYLOAD,2023-03-09 12:48:52,15.08860617,0.0001393,53.2182,144.6967,102.5951,257.5197,0.00018979,2.736e-05,0.0,0 STARLINK-4740,1 53871U 22114BF  23068.53394632  .00002736  00000-0  18979-3 0  9993,2 53871  53.2182 144.6967 0001393 102.5951 257.5197 15.08860617 27370,6917.817,95.436,540.646,538.719,0.0
53871.0,STARLINK-4740,PAYLOAD,2023-03-10 04:42:45,15.08828922,0.0001181,53.2189,141.7228,138.0807,222.0276,0.00021046,3.062e-05,0.0,0 STARLINK-4740,1 53871U 22114BF  23069.19635985  .00003062  00000-0  21046-3 0  9997,2 53871  53.2189 141.7228 0001181 138.0807 222.0276 15.08828922 27473,6917.914,95.438,540.596,538.962,0.0
53871.0,STARLINK-4740,PAYLOAD,2023-03-10 11:04:17,15.08838386,0.0001382,53.2183,140.5344,121.6003,238.5124,0.00015479,2.176e-05,0.0,0 STARLINK-4740,1 53871U 22114BF  23069.46131780  .00002176  00000-0  15479-3 0  9999,2 53871  53.2183 140.5344 0001382 121.6003 238.5124 15.08838386 28056,6917.885,95.438,540.706,538.794,0.0
53871.0,STARLINK-4740,PAYLOAD,2023-03-11 07:44:21,15.08818835,0.0001336,53.2183,136.6684,80.053,280.0612,-0.00020006,-3.469e-05,0.0,0 STARLINK-4740,1 53871U 22114BF  23070.32246577 -.00003469  00000-0 -20006-3 0  9997,2 53871  53.2183 136.6684 0001336  80.0530 280.0612 15.08818835 27646,6917.945,95.439,540.734,538.886,0.0
